ONEWEB-0317             
1 49103U 21075AE  25238.92745999  .00000423  00000+0  11402-2 0  9994
2 49103  87.8867  49.1333 0000930  81.5575 278.5659 13.12442452196599
ONEWEB-0318             
1 49104U 21075AF  25238.90649536 -.00000017  00000+0 -74660-4 0  9991
2 49104  87.9159  33.8946 0002001  97.4981 262.6379 13.18684549198386
ONEWEB-0319             
1 49105U 21075AG  25238.92074076 -.00000008  00000+0 -54595-4 0  9990
2 49105  87.9026  64.4280 0002059  98.5374 261.5991 13.17647652194851
ONEWEB-0323             
1 49106U 21075AH  25238.91772075  .00000311  00000+0  82879-3 0  9994
2 49106  87.8870  49.1215 0002271 106.3046 253.8333 13.12441833195950
ONEWEB-0329             
1 49107U 21075AJ  25238.92918290 -.00000053  00000+0 -16889-3 0  9990
2 49107  87.9022  64.4305 0001876  96.2587 263.8758 13.17649509194831
ONEWEB-0330             
1 49108U 21075AK  25238.93002487  .00000043  00000+0  76851-4 0  9997
2 49108  87.9026  64.4335 0001593  96.2854 263.8459 13.17651679194875
ONEWEB-0292             
1 49186U 21083A   25238.89150982 -.00000184  00000+0 -53924-3 0  9994
2 49186  87.9006  18.7276 0001911  99.3855 260.7490 13.13470478192291
ONEWEB-0303             
1 49187U 21083B   25238.90320221  .00000010  00000+0 -80864-5 0  9994
2 49187  87.9158  33.8959 0001938  97.1190 263.0162 13.18686131191193
ONEWEB-0306             
1 49188U 21083C   25238.89330522  .00000003  00000+0 -26258-4 0  9996
2 49188  87.9159  33.8834 0001572  90.3642 269.7671 13.18686265191239
ONEWEB-0307             
1 49189U 21083D   25238.88557529 -.00000281  00000+0 -80421-3 0  9994
2 49189  87.8993  18.7286 0001432 102.2476 257.8814 13.13471719192296
ONEWEB-0320             
1 49190U 21083E   25238.89988064 -.00000241  00000+0 -64408-3 0  9992
2 49190  87.9158  33.9104 0001783  94.8398 265.2937 13.18685604191190
ONEWEB-0321             
1 49191U 21083F   25238.81003434 -.00000029  00000+0 -10357-3 0  9992
2 49191  87.9290 333.1060 0001581  95.2027 264.9287 13.20769940197979
ONEWEB-0322             
1 49192U 21083G   25238.88136098 -.00000310  00000+0 -88262-3 0  9996
2 49192  87.9008  18.7237 0001415  89.5158 270.6133 13.13470649192286
ONEWEB-0324             
1 49193U 21083H   25238.88668645 -.00000022  00000+0 -89131-4 0  9992
2 49193  87.9159  33.8926 0001676  98.7142 261.4180 13.18687463191212
ONEWEB-0325             
1 49194U 21083J   25238.89000210 -.00000012  00000+0 -63565-4 0  9994
2 49194  87.9160  33.9093 0001732  91.2348 268.8983 13.18686069191224
ONEWEB-0326             
1 49195U 21083K   25238.90498558  .00000031  00000+0  44615-4 0  9997
2 49195  87.9155  33.8948 0002124  95.9469 264.1905 13.18688568191216
ONEWEB-0327             
1 49196U 21083L   25238.90469090  .00000034  00000+0  54087-4 0  9994
2 49196  87.9153  33.9225 0002096  95.0669 265.0703 13.18687937191232
